OBJECT_NAME,OBJECT_ID,EPOCH,MEAN_MOTION,ECCENTRICITY,INCLINATION,RA_OF_ASC_NODE,ARG_OF_PERICENTER,MEAN_ANOMALY,EPHEMERIS_TYPE,CLASSIFICATION_TYPE,NORAD_CAT_ID,ELEMENT_SET_NO,REV_AT_EPOCH,BSTAR,MEAN_MOTION_DOT,MEAN_MOTION_DDOT
KUIPER-00252,2025-301AA,2026-06-01T03:57:36.808704,14.79980704,.00008458,51.9019,51.4841,106.8482,253.2573,0,U,67157,999,2616,.1741525E-2,.13096E-3,0
KUIPER-00261,2025-301AB,2026-06-01T04:30:45.047232,14.79929403,.00006753,51.9037,61.4281,97.9549,262.1490,0,U,67158,999,2602,.86592275E-4,.439E-5,0
KUIPER-00265,2025-301AC,2026-06-01T04:56:05.245728,14.79935370,.00013174,51.9035,76.3253,73.6238,286.4869,0,U,67159,999,2585,.19318971E-3,.1252E-4,0
GSAT0233 (GALILEO 33),2025-302A,2026-05-31T12:11:37.951296,1.70474448,.00013855,54.3253,102.6060,237.6729,122.4766,0,U,67160,999,284,0,-.4E-7,0
GSAT0234 (GALILEO 34),2025-302C,2026-05-30T08:18:38.515104,1.70474422,.00034144,54.3263,102.6382,302.0807,245.1486,0,U,67162,999,287,0,-.7E-7,0
STARLINK-35755,2025-303A,2026-06-01T04:14:55.821408,15.27571024,.0001853,43.0006,199.2100,283.1605,76.9040,0,U,67163,999,2550,.77956489E-3,.21246E-3,0
STARLINK-36201,2025-303B,2026-05-31T13:28:39.965952,15.27587426,.00025152,43.0020,202.3291,265.5056,94.5509,0,U,67164,999,2541,.6858746E-3,.18664E-3,0
STARLINK-36186,2025-303C,2026-05-31T10:25:54.346656,15.27593503,.00007667,42.9947,203.0966,158.4713,201.6171,0,U,67165,999,2539,.1007428E-2,.27575E-3,0
STARLINK-36174,2025-303D,2026-06-01T04:00:08.114112,15.27590510,.0001082,43.0005,199.1339,265.9103,94.1625,0,U,67166,999,2550,.10147491E-2,.27776E-3,0
STARLINK-36198,2025-303E,2026-06-01T04:57:29.715552,15.27593430,.00011821,42.9970,199.4299,215.6479,144.4293,0,U,67167,999,2550,.70713575E-3,.19256E-3,0
STARLINK-35903,2025-303F,2026-06-01T03:56:24.797760,15.27588585,.00039141,42.9968,199.1093,147.7103,212.3989,0,U,67168,999,2550,.76507688E-3,.20859E-3,0
STARLINK-35839,2025-303G,2026-06-01T03:27:02.468448,15.27585201,.00014379,42.9982,199.8201,261.2468,98.8220,0,U,67169,999,2549,.67656886E-3,.18405E-3,0
STARLINK-35863,2025-303H,2026-06-01T04:46:23.606976,15.27595094,.00013078,42.9981,199.3722,221.7733,138.3019,0,U,67170,999,2550,.91452178E-3,.25001E-3,0
STARLINK-35771,2025-303J,2026-06-01T01:45:29.208672,15.27585611,.00019091,43.0015,200.1551,314.7528,45.3169,0,U,67171,999,2548,.90224296E-3,.24653E-3,0
STARLINK-35762,2025-303K,2026-06-01T04:50:05.702496,15.27592510,.00012382,42.9992,199.3943,247.3982,112.6738,0,U,67172,999,2550,.79617803E-3,.2172E-3,0
STARLINK-36183,2025-303L,2026-06-01T03:04:50.317824,15.27594476,.0002165,43.0007,199.7099,297.1556,62.9075,0,U,67173,999,2549,.70690694E-3,.1925E-3,0
STARLINK-36210,2025-303M,2026-05-31T04:57:23.797152,15.27590821,.00021286,43.0006,204.8262,282.8188,77.2426,0,U,67174,999,2535,.96877451E-3,.26502E-3,0
STARLINK-35756,2025-303N,2026-06-01T02:51:51.916032,15.27601303,.00055271,43.0032,199.6353,283.6166,76.4070,0,U,67175,999,2549,.9443648E-3,.25841E-3,0
STARLINK-35785,2025-303P,2026-06-01T04:18:38.277216,15.27590073,.00008987,43.0016,199.2235,220.4780,139.6005,0,U,67176,999,2550,.57331268E-3,.15552E-3,0
STARLINK-35853,2025-303Q,2026-06-01T04:24:10.830816,15.27599311,.00021303,42.9994,199.2466,172.6451,187.4432,0,U,67177,999,2550,.82122493E-3,.22419E-3,0
STARLINK-35878,2025-303R,2026-06-01T04:13:05.077344,15.27616325,.00011827,43.0027,199.1959,261.9935,98.0783,0,U,67178,999,2550,.13970115E-2,.38424E-3,0
STARLINK-35793,2025-303S,2026-06-01T04:09:23.136480,15.27584778,.00014793,43.0003,199.1777,280.3147,79.7538,0,U,67179,999,2550,.77828668E-3,.21219E-3,0
STARLINK-35876,2025-303T,2026-06-01T04:07:31.862784,15.27594871,.00010165,43.0008,199.1655,229.4472,130.6292,0,U,67180,999,2550,.58625756E-3,.15913E-3,0
STARLINK-35766,2025-303U,2026-05-31T13:45:19.584576,15.27620106,.00016611,42.9982,202.4101,253.0657,107.0013,0,U,67181,999,2541,.95061585E-4,.2358E-4,0
STARLINK-35782,2025-303V,2026-05-31T04:05:36.805632,15.27575913,.0002846,43.0026,204.5503,282.5256,77.5277,0,U,67182,999,2535,.19606945E-2,.54085E-3,0
STARLINK-35719,2025-303W,2026-05-31T13:39:46.080576,15.27590834,.00025809,43.0011,202.3817,285.1691,74.8875,0,U,67183,999,2541,.91581753E-3,.25034E-3,0
STARLINK-35910,2025-303X,2026-05-31T13:24:57.025440,15.27592472,.00046586,43.0029,202.2968,251.6180,108.4166,0,U,67184,999,2541,.71804448E-3,.19561E-3,0
STARLINK-35859,2025-303Y,2026-05-31T13:32:22.010496,15.27596073,.00019124,42.9992,202.3392,281.8028,78.2609,0,U,67185,999,2541,.73312233E-3,.19977E-3,0
STARLINK-35857,2025-303Z,2026-06-01T04:01:58.153152,15.27611607,.00042328,42.9877,199.1193,148.8283,211.2820,0,U,67186,999,2550,.17058966E-2,.47035E-3,0
STARLINK-35880,2025-303AA,2026-06-01T03:50:52.399680,15.27570823,.00011955,42.9972,199.0725,265.4252,94.6463,0,U,67187,999,2550,.93962354E-3,.25677E-3,0
STARLINK-35675,2025-303AB,2026-06-01T03:30:44.456832,15.27594231,.00006318,42.9961,199.8311,233.3665,126.7128,0,U,67188,999,2549,.69816255E-3,.19008E-3,0
STARLINK-35889,2025-303AC,2026-06-01T03:21:29.536416,15.27593692,.00003851,42.9961,199.7881,1.7200,358.3653,0,U,67189,999,2549,.77494694E-3,.21133E-3,0
STARLINK-35888,2025-303AD,2026-06-01T04:40:50.415744,15.27595715,.00013741,43.0008,199.3378,256.7344,103.3354,0,U,67190,999,2550,.94103617E-3,.25736E-3,0
STARLINK-35716,2025-303AE,2026-06-01T05:03:02.860992,15.27577477,.00017233,42.9998,199.4530,280.2781,79.7876,0,U,67191,999,2550,.57012395E-3,.15458E-3,0
STARLINK-36182,2025-304A,2026-05-31T22:23:48.851520,14.98318819,.00026346,70.0011,324.5797,263.0265,97.0594,0,U,67192,999,2632,-.10481671E-3,-.1343E-4,0
STARLINK-36279,2025-304B,2026-05-31T22:17:34.399104,14.98331453,.00027531,70.0011,324.5583,269.2702,90.8142,0,U,67193,999,2635,.48349286E-3,.5681E-4,0
STARLINK-36284,2025-304C,2026-05-31T21:11:28.470624,14.98318344,.00035106,70.0007,324.8063,265.5317,94.5441,0,U,67194,999,2634,-.29114938E-3,-.3564E-4,0
STARLINK-36291,2025-304D,2026-05-31T21:35:45.875328,14.98338710,.00031273,70.0013,324.8574,261.5473,98.5332,0,U,67195,999,2634,.19966614E-3,.2291E-4,0
STARLINK-36239,2025-304E,2026-05-31T21:29:31.548192,14.98335824,.00028653,70.0010,324.8484,265.3521,94.7310,0,U,67196,999,2634,.22788801E-3,.2628E-4,0
STARLINK-36283,2025-304F,2026-05-31T21:53:31.592544,14.98338930,.00024285,70.0015,324.4987,269.0076,91.0805,0,U,67197,999,2635,.2777824E-3,.3224E-4,0
STARLINK-36267,2025-304G,2026-05-31T20:59:28.375008,14.98332859,.00025572,70.0013,324.7713,266.6022,93.4844,0,U,67198,999,2631,.21309949E-3,.2451E-4,0
STARLINK-36268,2025-304H,2026-05-31T21:11:45.964896,14.98327005,.0002497,70.0020,324.7981,271.3830,88.7043,0,U,67199,999,2633,.11222741E-2,.13322E-3,0
STARLINK-36270,2025-304J,2026-05-31T20:35:40.374816,14.98331858,.00025674,70.0013,324.7191,273.4265,86.6601,0,U,67200,999,2634,.48207673E-3,.5664E-4,0
STARLINK-36262,2025-304K,2026-05-31T21:23:31.033824,14.98335605,.00023866,70.0012,324.8305,267.5182,92.5704,0,U,67201,999,2634,.26156205E-3,.303E-4,0
STARLINK-36263,2025-304L,2026-05-31T21:05:29.013792,14.98332404,.00029091,70.0014,324.7862,266.9889,93.0937,0,U,67202,999,2634,.21357123E-3,.2456E-4,0
STARLINK-36224,2025-304M,2026-05-31T22:29:35.802816,14.98332078,.00026051,70.0007,324.5812,262.8684,97.2179,0,U,67203,999,2635,.21256449E-3,.2444E-4,0
STARLINK-36185,2025-304N,2026-05-31T20:29:25.055808,14.98334918,.00031571,70.0005,324.6952,267.8947,92.1851,0,U,67204,999,2634,.56198534E-3,.662E-4,0
STARLINK-36197,2025-304P,2026-05-31T21:47:32.998848,14.98321509,.00027074,70.0013,324.4858,264.5914,95.4936,0,U,67205,999,2632,.62989084E-3,.7429E-4,0
STARLINK-36056,2025-304Q,2026-05-31T21:23:44.088864,14.98333989,.00029931,70.0009,324.8272,268.5417,91.5400,0,U,67206,999,2631,-.33201205E-3,-.4053E-4,0
STARLINK-36225,2025-304R,2026-05-31T20:59:42.605952,14.98335580,.00028138,70.0002,324.7667,262.3581,97.7258,0,U,67207,999,2634,.31128424E-3,.3624E-4,0
STARLINK-36265,2025-304S,2026-05-31T21:17:30.315552,14.98332667,.00026007,70.0014,324.8180,265.7298,94.3564,0,U,67208,999,2634,.18957396E-3,.217E-4,0
STARLINK-36226,2025-304T,2026-05-31T21:35:32.496288,14.98333138,.00030693,70.0014,324.8604,268.6394,91.4414,0,U,67209,999,2634,.45040849E-3,.5286E-4,0
STARLINK-36173,2025-304U,2026-05-31T22:23:35.129472,14.98332920,.000207,70.0011,324.5712,262.4100,97.6824,0,U,67210,999,2635,.16170565E-3,.1837E-4,0
STARLINK-36280,2025-304V,2026-05-31T22:11:33.743040,14.98332668,.00021396,70.0011,324.5467,265.5841,94.5074,0,U,67211,999,2635,.22215193E-3,.2559E-4,0
STARLINK-36213,2025-304W,2026-05-31T21:59:32.078400,14.98340266,.0003153,70.0012,324.5118,259.7695,100.3109,0,U,67212,999,2635,.20808023E-3,.2391E-4,0
STARLINK-36199,2025-304X,2026-05-31T21:41:30.346944,14.98337379,.00029217,70.0015,324.4691,266.1799,93.9026,0,U,67213,999,2635,.24949431E-3,.2886E-4,0
STARLINK-36203,2025-304Y,2026-05-31T21:29:45.544992,14.98329769,.00030154,70.0014,324.8427,263.3253,96.7563,0,U,67214,999,2634,.14865389E-4,.84E-6,0
STARLINK-36221,2025-304Z,2026-05-31T21:17:44.447136,14.98333825,.00029496,70.0006,324.8118,268.9036,91.1785,0,U,67215,999,2634,.13814407E-3,.1556E-4,0
STARLINK-36212,2025-304AA,2026-05-31T21:05:43.263744,14.98332448,.00026029,70.0019,324.7804,265.8013,94.2849,0,U,67216,999,2634,.21794208E-3,.2509E-4,0
STARLINK-36216,2025-304AB,2026-05-31T22:29:50.051904,14.98332705,.00026624,70.0014,324.5816,265.9297,94.1558,0,U,67217,999,2634,.22271692E-3,.2566E-4,0
STARLINK-36211,2025-304AC,2026-05-31T20:41:40.480512,14.98343063,.00027487,70.0012,324.7213,259.6276,100.4573,0,U,67218,999,2631,.98553288E-4,.1084E-4,0
DISKSAT C,2025-305A,2026-06-01T02:22:21.916992,15.09437082,.00045644,44.9997,168.4189,61.0491,299.0842,0,U,67219,999,2489,.73982795E-3,.11802E-3,0
DISKSAT B,2025-305B,2026-05-31T01:58:51.832704,15.08617594,.00031954,45.0007,174.3398,53.7351,306.3820,0,U,67220,999,2473,.35383116E-3,.5384E-4,0
DISKSAT D,2025-305C,2026-06-01T01:49:14.733408,15.08856218,.00034932,45.0014,169.0788,66.3784,293.7459,0,U,67221,999,2488,.56746555E-3,.8846E-4,0
